FENGYUN 3D              
1 43010U 17072A   26158.84468227  .00000190  00000+0  11158-3 0  9996
2 43010  99.0128 133.0986 0002648  77.1465 283.0006 14.19737556443669
NOAA 20 (JPSS-1)        
1 43013U 17073A   26158.83810000  .00000070  00000+0  54269-4 0  9997
2 43013  98.7769  98.3840 0000488  39.8818 320.2394 14.19510103443142
GOES 17                 
1 43226U 18022A   26158.61306500 -.00000168  00000+0  00000+0 0  9997
2 43226   0.9120  85.8794 0000672   8.1490 293.2029  1.00272144 30325
SENTINEL-3B             
1 43437U 18039A   26158.72217039  .00000131  00000+0  72334-4 0  9992
2 43437  98.6250 226.3900 0000878  76.5790 283.5488 14.26739261422773
FENGYUN 2H              
1 43491U 18050A   26158.86042049 -.00000116  00000+0  00000+0 0  9997
2 43491   3.0066  79.1814 0001516 126.0140  80.2682  1.00271440 29348
METOP-C                 
1 43689U 18087A   26158.77690213  .00000109  00000+0  69655-4 0  9995
2 43689  98.6647 218.5522 0001410 139.6422 220.4860 14.21509678393493
GEO-KOMPSAT-2A          
1 43823U 18100A   26158.82537389 -.00000329  00000+0  00000+0 0  9990
2 43823   0.0496 133.5453 0002347 309.9513 238.1286  1.00271246 27531
METEOR-M2 2             
1 44387U 19038A   26158.90192641 -.00000183  00000+0 -59333-4 0  9991
2 44387  98.9148 146.0506 0002315  62.2141 297.9271 14.24362499359970
ARKTIKA-M 1             
1 47719U 21016A   26153.03917935 -.00000200  00000+0  00000+0 0  9993
2 47719  63.2379  59.8266 7283239 269.8643  14.6915  2.00628509 38489
FENGYUN 3E              
1 49008U 21062A   26158.90005816  .00000041  00000+0  40148-4 0  9998
2 49008  98.7497 162.4118 0002727 101.0835 259.0648 14.19903728255264
GOES 18                 
1 51850U 22021A   26158.74621278  .00000112  00000+0  00000+0 0  9997
2 51850   0.0334 152.6519 0000591 342.4630 252.6707  1.00272403  6494
NOAA 21 (JPSS-2)        
1 54234U 22150A   26158.80085882  .00000079  00000+0  58169-4 0  9997
2 54234  98.7058  97.7477 0001106 177.0968 183.0214 14.19563905185213
METEOSAT-12 (MTG-I1)    
1 54743U 22170C   26158.70200119  .00000006  00000+0  00000+0 0  9991
2 54743   0.7272  21.3080 0003441  70.7878  56.3015  1.00271605 12887
TIANMU-1 03             
1 55973U 23039A   26158.80135828  .00016219  00000+0  32259-3 0  9995
2 55973  97.5238 332.4054 0004091 122.2087 237.9559 15.47019842179381
TIANMU-1 04             
1 55974U 23039B   26158.85909045  .00016446  00000+0  32047-3 0  9998
2 55974  97.5174 331.6186 0004706 119.2418 240.9303 15.47609808179406
TIANMU-1 05             
1 55975U 23039C   26158.84636017  .00016282  00000+0  32466-3 0  9997
2 55975  97.5218 332.0708 0003759 136.8241 223.3303 15.46947609179371
TIANMU-1 06             
1 55976U 23039D   26158.86190083  .00016813  00000+0  32864-3 0  9990
2 55976  97.5227 332.7131 0003995 133.5266 226.6316 15.47517838179404
FENGYUN 3G              
1 56232U 23055A   26158.83954620  .00027879  00000+0  42184-3 0  9996
2 56232  49.9936  34.1938 0005555 161.5298 198.5873 15.54398529178558
METEOR-M2 3             
1 57166U 23091A   26158.82384538 -.00000007  00000+0  15871-4 0  9996
2 57166  98.6085 213.9934 0003807 180.4291 179.6885 14.24046031153184
TIANMU-1 07             
1 57399U 23101A   26158.87700293  .00007375  00000+0  25880-3 0  9995
2 57399  97.2595 209.7598 0003545 140.9693 219.1804 15.29701236160223
TIANMU-1 08             
1 57400U 23101B   26158.84367090  .00007054  00000+0  24758-3 0  9996
2 57400  97.2585 209.4992 0005088 138.0461 222.1171 15.29705496160217
TIANMU-1 09             
1 57401U 23101C   26158.89267765  .00007602  00000+0  26643-3 0  9994
2 57401  97.2543 208.9676 0003916 148.1585 211.9893 15.29734427160226
TIANMU-1 10             
1 57402U 23101D   26158.86014098  .00007130  00000+0  25022-3 0  9997
2 57402  97.2622 209.9769 0005501 151.0723 209.0824 15.29704486160211
FENGYUN 3F              
1 57490U 23111A   26158.81372605  .00000058  00000+0  47942-4 0  9999
2 57490  98.6836 228.9968 0001583  99.3830 260.7526 14.19937593147539
ARKTIKA-M 2             
1 58584U 23198A   26154.30372208  .00000150  00000+0  00000+0 0  9990
2 58584  63.2209 155.9142 6898549 267.4684  18.7857  2.00591941 18047
TIANMU-1 11             
1 58645U 23205A   26158.81345778  .00006765  00000+0  25844-3 0  9994
2 58645  97.3453 180.5180 0010010  47.3685 312.8397 15.26899438136096
TIANMU-1 12             
1 58646U 23205B   26158.84912935  .00006784  00000+0  25960-3 0  9993
2 58646  97.3442 180.3107 0007853  34.7461 325.4290 15.26862096136086
TIANMU-1 13             
1 58647U 23205C   26158.81487823  .00006737  00000+0  25902-3 0  9998
2 58647  97.3469 180.5483 0007060  16.1581 343.9881 15.26715721136074
TIANMU-1 14             
1 58648U 23205D   26158.86589861  .00007000  00000+0  26858-3 0  9994
2 58648  97.3405 179.7877 0008024  19.2899 340.8642 15.26761605136083
TIANMU-1 19             
1 58660U 23208A   26158.81305976  .00009074  00000+0  30135-3 0  9995
2 58660  97.4492 275.0669 0004619   6.8159 353.3144 15.31434051135892
TIANMU-1 20             
1 58661U 23208B   26158.85813932  .00008941  00000+0  28607-3 0  9999
2 58661  97.4434 275.7379 0006864   9.4795 350.6575 15.32626320135995
