OBJECT_NAME,OBJECT_ID,EPOCH,MEAN_MOTION,ECCENTRICITY,INCLINATION,RA_OF_ASC_NODE,ARG_OF_PERICENTER,MEAN_ANOMALY,EPHEMERIS_TYPE,CLASSIFICATION_TYPE,NORAD_CAT_ID,ELEMENT_SET_NO,REV_AT_EPOCH,BSTAR,MEAN_MOTION_DOT,MEAN_MOTION_DDOT
FENGYUN 3D,2017-072A,2026-06-07T20:16:20.548128,14.19737556,.0002648,99.0128,133.0986,77.1465,283.0006,0,U,43010,999,44366,.11158E-3,.19E-5,0
NOAA 20 (JPSS-1),2017-073A,2026-06-07T20:06:51.840000,14.19510103,.0000488,98.7769,98.3840,39.8818,320.2394,0,U,43013,999,44314,.54269E-4,.7E-6,0
GOES 17,2018-022A,2026-06-07T14:42:48.816000,1.00272144,.0000672,0.9120,85.8794,8.1490,293.2029,0,U,43226,999,3032,0,-.168E-5,0
SENTINEL-3B,2018-039A,2026-06-07T17:19:55.521696,14.26739261,.0000878,98.6250,226.3900,76.5790,283.5488,0,U,43437,999,42277,.72334E-4,.131E-5,0
FENGYUN 2H,2018-050A,2026-06-07T20:39:00.330336,1.00271440,.0001516,3.0066,79.1814,126.0140,80.2682,0,U,43491,999,2934,0,-.116E-5,0
METOP-C,2018-087A,2026-06-07T18:38:44.344032,14.21509678,.000141,98.6647,218.5522,139.6422,220.4860,0,U,43689,999,39349,.69655E-4,.109E-5,0
GEO-KOMPSAT-2A,2018-100A,2026-06-07T19:48:32.304096,1.00271246,.0002347,0.0496,133.5453,309.9513,238.1286,0,U,43823,999,2753,0,-.329E-5,0
METEOR-M2 2,2019-038A,2026-06-07T21:38:46.441824,14.24362499,.0002315,98.9148,146.0506,62.2141,297.9271,0,U,44387,999,35997,-.59333E-4,-.183E-5,0
ARKTIKA-M 1,2021-016A,2026-06-02T00:56:25.095840,2.00628509,.72832396,63.2379,59.8266,269.8643,14.6915,0,U,47719,999,3848,0,-.2E-5,0
FENGYUN 3E,2021-062A,2026-06-07T21:36:05.025024,14.19903728,.0002727,98.7497,162.4118,101.0835,259.0648,0,U,49008,999,25526,.40148E-4,.41E-6,0
GOES 18,2022-021A,2026-06-07T17:54:32.784192,1.00272403,.0000591,0.0334,152.6519,342.4630,252.6707,0,U,51850,999,649,0,.112E-5,0
NOAA 21 (JPSS-2),2022-150A,2026-06-07T19:13:14.202048,14.19563905,.0001106,98.7058,97.7477,177.0968,183.0214,0,U,54234,999,18521,.58169E-4,.79E-6,0
METEOSAT-12 (MTG-I1),2022-170C,2026-06-07T16:50:52.902816,1.00271605,.0003441,0.7272,21.3080,70.7878,56.3015,0,U,54743,999,1288,0,.6E-7,0
TIANMU-1 03,2023-039A,2026-06-07T19:13:57.355392,15.47019842,.0004091,97.5238,332.4054,122.2087,237.9559,0,U,55973,999,17938,.32259E-3,.16219E-3,0
TIANMU-1 04,2023-039B,2026-06-07T20:37:05.414880,15.47609808,.0004706,97.5174,331.6186,119.2418,240.9303,0,U,55974,999,17940,.32047E-3,.16446E-3,0
TIANMU-1 05,2023-039C,2026-06-07T20:18:45.518688,15.46947609,.0003759,97.5218,332.0708,136.8241,223.3303,0,U,55975,999,17937,.32466E-3,.16282E-3,0
TIANMU-1 06,2023-039D,2026-06-07T20:41:08.231712,15.47517838,.0003995,97.5227,332.7131,133.5266,226.6316,0,U,55976,999,17940,.32864E-3,.16813E-3,0
FENGYUN 3G,2023-055A,2026-06-07T20:08:56.791680,15.54398529,.0005555,49.9936,34.1938,161.5298,198.5873,0,U,56232,999,17855,.42184E-3,.27879E-3,0
METEOR-M2 3,2023-091A,2026-06-07T19:46:20.240832,14.24046031,.0003807,98.6085,213.9934,180.4291,179.6885,0,U,57166,999,15318,.15871E-4,-.7E-7,0
TIANMU-1 07,2023-101A,2026-06-07T21:02:53.053152,15.29701236,.0003545,97.2595,209.7598,140.9693,219.1804,0,U,57399,999,16022,.2588E-3,.7375E-4,0
TIANMU-1 08,2023-101B,2026-06-07T20:14:53.165760,15.29705496,.0005088,97.2585,209.4992,138.0461,222.1171,0,U,57400,999,16021,.24758E-3,.7054E-4,0
TIANMU-1 09,2023-101C,2026-06-07T21:25:27.348960,15.29734427,.0003916,97.2543,208.9676,148.1585,211.9893,0,U,57401,999,16022,.26643E-3,.7602E-4,0
TIANMU-1 10,2023-101D,2026-06-07T20:38:36.180672,15.29704486,.0005501,97.2622,209.9769,151.0723,209.0824,0,U,57402,999,16021,.25022E-3,.713E-4,0
FENGYUN 3F,2023-111A,2026-06-07T19:31:45.930720,14.19937593,.0001583,98.6836,228.9968,99.3830,260.7526,0,U,57490,999,14753,.47942E-4,.58E-6,0
ARKTIKA-M 2,2023-198A,2026-06-03T07:17:21.587712,2.00591941,.68985494,63.2209,155.9142,267.4684,18.7857,0,U,58584,999,1804,0,.15E-5,0
TIANMU-1 11,2023-205A,2026-06-07T19:31:22.752192,15.26899438,.001001,97.3453,180.5180,47.3685,312.8397,0,U,58645,999,13609,.25844E-3,.6765E-4,0
TIANMU-1 12,2023-205B,2026-06-07T20:22:44.775840,15.26862096,.0007853,97.3442,180.3107,34.7461,325.4290,0,U,58646,999,13608,.2596E-3,.6784E-4,0
TIANMU-1 13,2023-205C,2026-06-07T19:33:25.479072,15.26715721,.000706,97.3469,180.5483,16.1581,343.9881,0,U,58647,999,13607,.25902E-3,.6737E-4,0
TIANMU-1 14,2023-205D,2026-06-07T20:46:53.639904,15.26761605,.0008024,97.3405,179.7877,19.2899,340.8642,0,U,58648,999,13608,.26858E-3,.7E-4,0
TIANMU-1 19,2023-208A,2026-06-07T19:30:48.363264,15.31434051,.0004619,97.4492,275.0669,6.8159,353.3144,0,U,58660,999,13589,.30135E-3,.9074E-4,0
TIANMU-1 20,2023-208B,2026-06-07T20:35:43.237248,15.32626320,.0006864,97.4434,275.7379,9.4795,350.6575,0,U,58661,999,13599,.28607E-3,.8941E-4,0
